NORAD_CAT_ID,OBJECT_NAME,OBJECT_TYPE,EPOCH,MEAN_MOTION,ECCENTRICITY,INCLINATION,RA_OF_ASC_NODE,ARG_OF_PERICENTER,MEAN_ANOMALY,BSTAR,MEAN_MOTION_DOT,MEAN_MOTION_DDOT,TLE_LINE0,TLE_LINE1,TLE_LINE2,SEMIMAJOR_AXIS,PERIOD,APOGEE,PERIGEE,DECAYED
50173.0,STARLINK-3289,PAYLOAD,2022-01-19 14:00:01,15.73206254,0.000122,53.2156,206.8775,78.851,350.5875,0.00028571,0.00039678,0.0,0 STARLINK-3289,1 50173U 21125T   22019.58334491  .00039678  00000-0  28571-3 0  9997,2 50173  53.2156 206.8775 0001220  78.8510 350.5875 15.73206254  5260,6727.877,91.533,350.56300000000016,348.922,0.0
50173.0,STARLINK-3289,PAYLOAD,2022-01-19 22:00:00,15.73223343,0.0001190999999999,53.2152,205.2298,61.5782,96.8164,4.2374e-05,5.337e-05,0.0,0 STARLINK-3289,1 50173U 21125T   22019.91667824  .00005337  00000-0  42374-4 0  9996,2 50173  53.2152 205.2298 0001191  61.5782  96.8164 15.73223343  3690,6727.829000000002,91.532,350.495,348.892,0.0
50173.0,STARLINK-3289,PAYLOAD,2022-01-20 06:00:00,15.73243994,0.000111,53.215,203.5785,70.7054,176.6268,-0.00079291,-0.00110653,0.0,0 STARLINK-3289,1 50173U 21125T   22020.25001157 -.00110653  00000-0 -79291-3 0  9993,2 50173  53.2150 203.5785 0001110  70.7054 176.6268 15.73243994  5378,6727.77,91.531,350.38199999999995,348.88800000000015,0.0
50173.0,STARLINK-3289,PAYLOAD,2022-01-20 14:00:01,15.73178825,0.0001264999999999,53.2154,201.929,75.7027,260.5487,-0.00081729,-0.00113681,0.0,0 STARLINK-3289,1 50173U 21125T   22020.58334491 -.00113681  00000-0 -81729-3 0  9992,2 50173  53.2154 201.9290 0001265  75.7027 260.5487 15.73178825  3678,6727.956,91.534,350.672,348.969,0.0
50173.0,STARLINK-3289,PAYLOAD,2022-01-20 22:00:00,15.73054578,0.0001267,53.2156,200.2815,61.2999,3.8155,0.0007207,0.00101117,0.0,0 STARLINK-3289,1 50173U 21125T   22020.91667824  .00101117  00000-0  72070-3 0  9996,2 50173  53.2156 200.2815 0001267  61.2999   3.8155 15.73054578  3684,6728.31,91.542,351.027,349.32199999999995,0.0
50173.0,STARLINK-3289,PAYLOAD,2022-01-21 08:00:01,15.73093929,0.000116,53.2157,198.2177,66.3239,199.7938,0.00066641,0.00093526,0.0,0 STARLINK-3289,1 50173U 21125T   22021.33334491  .00093526  00000-0  66641-3 0  9995,2 50173  53.2157 198.2177 0001160  66.3239 199.7938 15.73093929  5541,6728.198,91.539,350.843,349.282,0.0
50173.0,STARLINK-3289,PAYLOAD,2022-01-21 14:00:01,15.73156945,0.0001248,53.216,196.9813,65.7233,177.0073,0.00017131,0.00023445,0.0,0 STARLINK-3289,1 50173U 21125T   22021.58334491  .00023445  00000-0  17131-3 0  9995,2 50173  53.2160 196.9813 0001248  65.7233 177.0073 15.73156945  3670,6728.018,91.536,350.723,349.043,0.0
50173.0,STARLINK-3289,PAYLOAD,2022-01-21 22:00:00,15.73141618,0.000137,53.2155,195.3336,54.3707,277.2519,0.00083562,0.00118018,0.0,0 STARLINK-3289,1 50173U 21125T   22021.91667824  .00118018  00000-0  83562-3 0  9993,2 50173  53.2155 195.3336 0001370  54.3707 277.2519 15.73141618  5630,6728.062,91.537,350.848,349.005,0.0
50173.0,STARLINK-3289,PAYLOAD,2022-01-22 14:00:01,15.73307028,0.0001192,53.2157,192.0329,60.1644,89.3504,1.2233e-05,1.104e-05,0.0,0 STARLINK-3289,1 50173U 21125T   22022.58334491  .00001104  00000-0  12233-4 0  9993,2 50173  53.2157 192.0329 0001192  60.1644  89.3504 15.73307028  5742,6727.59,91.527,350.25699999999995,348.653,0.0
50173.0,STARLINK-3289,PAYLOAD,2022-01-22 22:00:00,15.73280051,0.0001383,53.2159,190.3848,47.9882,190.6066,0.00031586,0.00044094,0.0,0 STARLINK-3289,1 50173U 21125T   22022.91667824  .00044094  00000-0  31586-3 0  9995,2 50173  53.2159 190.3848 0001383  47.9882 190.6066 15.73280051  3686,6727.667,91.529,350.462,348.602,0.0
50173.0,STARLINK-3289,PAYLOAD,2022-01-23 06:00:00,15.73290231,0.0001245,53.2161,188.7331,54.4133,273.2193,-0.00048934,-0.00068999,0.0,0 STARLINK-3289,1 50173U 21125T   22023.25001157 -.00068999  00000-0 -48934-3 0  9991,2 50173  53.2161 188.7331 0001245  54.4133 273.2193 15.73290231  5846,6727.638000000001,91.528,350.341,348.665,0.0
50173.0,STARLINK-3289,PAYLOAD,2022-01-23 14:00:01,15.73258964,0.0001313,53.2161,187.084,50.6837,5.9539,-0.00081326,-0.00113514,0.0,0 STARLINK-3289,1 50173U 21125T   22023.58334491 -.00113514  00000-0 -81326-3 0  9993,2 50173  53.2161 187.0840 0001313  50.6837   5.9539 15.73258964  3690,6727.727,91.53,350.475,348.709,0.0
50173.0,STARLINK-3289,PAYLOAD,2022-01-23 22:00:00,15.73169719,0.0001447,53.2155,185.4359,41.6236,103.9787,0.00065432,0.00092102,0.0,0 STARLINK-3289,1 50173U 21125T   22023.91667824  .00092102  00000-0  65432-3 0  9996,2 50173  53.2155 185.4359 0001447  41.6236 103.9787 15.73169719  3683,6727.982,91.535,350.82,348.87300000000016,0.0
50173.0,STARLINK-3289,PAYLOAD,2022-01-24 06:00:02,15.73219755,0.0001367,53.2155,183.7844,51.389,183.1822,-8.3599e-05,-0.00012345,0.0,0 STARLINK-3289,1 50173U 21125T   22024.25002315 -.00012345  00000-0 -83599-4 0  9990,2 50173  53.2155 183.7844 0001367  51.3890 183.1822 15.73219755  6003,6727.839,91.532,350.624,348.784,0.0
50173.0,STARLINK-3289,PAYLOAD,2022-01-24 14:00:01,15.7319733,0.0001508,53.2156,182.1357,52.8649,270.5703,6.6009e-05,8.652e-05,0.0,0 STARLINK-3289,1 50173U 21125T   22024.58334491  .00008652  00000-0  66009-4 0  9990,2 50173  53.2156 182.1357 0001508  52.8649 270.5703 15.73197330  3696,6727.903,91.533,350.782,348.75300000000016,0.0
50173.0,STARLINK-3289,PAYLOAD,2022-01-24 22:00:00,15.73192036,0.0001573,53.2155,180.4875,41.4065,10.9646,-4.141e-06,-1.201e-05,0.0,0 STARLINK-3289,1 50173U 21125T   22024.91667824 -.00001201  00000-0 -41410-5 0  9991,2 50173  53.2155 180.4875 0001573  41.4065  10.9646 15.73192036  3699,6727.918000000002,91.534,350.841,348.725,0.0
50173.0,STARLINK-3289,PAYLOAD,2022-01-25 14:00:01,15.73257121,0.0001471,53.2157,177.1874,39.9598,190.2486,-0.00058117,-0.00081597,0.0,0 STARLINK-3289,1 50173U 21125T   22025.58334491 -.00081597  00000-0 -58117-3 0  9992,2 50173  53.2157 177.1874 0001471  39.9598 190.2486 15.73257121  3672,6727.732,91.53,350.587,348.608,0.0
50173.0,STARLINK-3289,PAYLOAD,2022-01-25 22:00:00,15.73194542,0.0001614,53.215,175.5389,29.9699,289.2213,0.00059393,0.00083548,0.0,0 STARLINK-3289,1 50173U 21125T   22025.91667824  .00083548  00000-0  59393-3 0  9991,2 50173  53.2150 175.5389 0001614  29.9699 289.2213 15.73194542  6260,6727.911,91.533,350.862,348.69,0.0
50173.0,STARLINK-3289,PAYLOAD,2022-01-26 06:00:00,15.73189717,0.0001588,53.2152,173.8851,45.995,2.1525,0.00040986,0.00057269,0.0,0 STARLINK-3289,1 50173U 21125T   22026.25001157  .00057269  00000-0  40986-3 0  9999,2 50173  53.2152 173.8851 0001588  45.9950   2.1525 15.73189717  6317,6727.924,91.534,350.858,348.721,0.0
50173.0,STARLINK-3289,PAYLOAD,2022-01-26 14:00:01,15.73202506,0.0001771999999999,53.2151,172.2388,44.1181,92.9751,8.1294e-05,0.00010805,0.0,0 STARLINK-3289,1 50173U 21125T   22026.58334491  .00010805  00000-0  81294-4 0  9998,2 50173  53.2151 172.2388 0001772  44.1181  92.9751 15.73202506  6372,6727.888000000001,91.533,350.945,348.561,0.0
50173.0,STARLINK-3289,PAYLOAD,2022-01-26 22:00:00,15.73243796,0.000178,53.2149,170.5901,36.1416,189.8748,-0.00063252,-0.00088632,0.0,0 STARLINK-3289,1 50173U 21125T   22026.91667824 -.00088632  00000-0 -63252-3 0  9992,2 50173  53.2149 170.5901 0001780  36.1416 189.8748 15.73243796  3681,6727.77,91.531,350.833,348.43800000000016,0.0
50173.0,STARLINK-3289,PAYLOAD,2022-01-27 04:00:00,15.73160569,0.0001592,53.2154,169.3512,32.0316,170.7065,-6.3773e-05,-9.545e-05,0.0,0 STARLINK-3289,1 50173U 21125T   22027.16667824 -.00009545  00000-0 -63773-4 0  9995,2 50173  53.2154 169.3512 0001592  32.0316 170.7065 15.73160569  6462,6728.0080000000025,91.535,350.944,348.801,0.0
50173.0,STARLINK-3289,PAYLOAD,2022-01-27 13:48:54,15.73178305,0.0001526,53.2157,167.327,30.9243,329.1867,-8.0898e-05,-0.00011947,0.0,0 STARLINK-3289,1 50173U 21125T   22027.57562988 -.00011947  00000-0 -80898-4 0  9991,2 50173  53.2157 167.3270 0001526  30.9243 329.1867 15.73178305  9625,6727.956999999999,91.534,350.849,348.795,0.0
50173.0,STARLINK-3289,PAYLOAD,2022-01-27 22:00:00,15.73207922,0.0001814,53.2148,165.6414,23.7072,109.0152,-0.00032031,-0.0004535,0.0,0 STARLINK-3289,1 50173U 21125T   22027.91667824 -.00045350  00000-0 -32031-3 0  9994,2 50173  53.2148 165.6414 0001814  23.7072 109.0152 15.73207922  6588,6727.873000000001,91.533,350.958,348.517,0.0
50173.0,STARLINK-3289,PAYLOAD,2022-01-28 10:00:00,15.73200659,0.0001573,53.2151,163.1655,27.0903,59.0046,0.00037124,0.00051805,0.0,0 STARLINK-3289,1 50173U 21125T   22028.41667824  .00051805  00000-0  37124-3 0  9998,2 50173  53.2151 163.1655 0001573  27.0903  59.0046 15.73200659  6658,6727.893,91.533,350.81699999999995,348.7,0.0
50173.0,STARLINK-3289,PAYLOAD,2022-01-28 14:00:01,15.7324144,0.0001761,53.215,162.3419,24.2768,286.2837,-0.00016192,-0.00023324,0.0,0 STARLINK-3289,1 50173U 21125T   22028.58334491 -.00023324  00000-0 -16192-3 0  9996,2 50173  53.2150 162.3419 0001761  24.2768 286.2837 15.73241440  3699,6727.776999999999,91.531,350.827,348.457,0.0
50173.0,STARLINK-3289,PAYLOAD,2022-01-28 22:00:00,15.73216691,0.0002004,53.215,160.6927,25.5535,13.9897,0.00018445,0.00025363,0.0,0 STARLINK-3289,1 50173U 21125T   22028.91667824  .00025363  00000-0  18445-3 0  9998,2 50173  53.2150 160.6927 0002004  25.5535  13.9897 15.73216691  6730,6727.848000000001,91.532,351.061,348.36400000000015,0.0
50173.0,STARLINK-3289,PAYLOAD,2022-01-29 14:00:01,15.73256666,0.0002183,53.2157,157.3932,32.606,184.8658,-0.00037633,-0.00053238,0.0,0 STARLINK-3289,1 50173U 21125T   22029.58334491 -.00053238  00000-0 -37633-3 0  9997,2 50173  53.2157 157.3932 0002183  32.6060 184.8658 15.73256666  3697,6727.734,91.53,351.06699999999995,348.13,0.0
50173.0,STARLINK-3289,PAYLOAD,2022-01-29 22:00:00,15.73226915,0.0002167,53.2153,155.7437,24.8322,281.6289,-0.00032176,-0.00045591,0.0,0 STARLINK-3289,1 50173U 21125T   22029.91667824 -.00045591  00000-0 -32176-3 0  9993,2 50173  53.2153 155.7437 0002167  24.8322 281.6289 15.73226915  6896,6727.818,91.532,351.141,348.226,0.0
